OBJECT_NAME,OBJECT_ID,EPOCH,MEAN_MOTION,ECCENTRICITY,INCLINATION,RA_OF_ASC_NODE,ARG_OF_PERICENTER,MEAN_ANOMALY,EPHEMERIS_TYPE,CLASSIFICATION_TYPE,NORAD_CAT_ID,ELEMENT_SET_NO,REV_AT_EPOCH,BSTAR,MEAN_MOTION_DOT,MEAN_MOTION_DDOT
STARLINK-5841,2023-064AX,2026-07-02T15:22:53.949216,14.98329365,.0003002,69.9998,154.6353,268.9036,91.1779,0,U,56493,999,17394,.10269E-4,.3E-6,0
STARLINK-5530,2023-064AY,2026-07-02T17:17:37.690368,14.98309254,.0003644,69.9993,174.3935,266.1055,93.9687,0,U,56494,999,17345,.40023E-3,.4683E-4,0
STARLINK-5529,2023-064AZ,2026-07-02T17:05:21.912288,14.98330328,.0003049,69.9995,174.3638,268.9032,91.1777,0,U,56495,999,17346,.22509E-4,.176E-5,0
STARLINK-5526,2023-064BA,2026-07-02T16:59:21.238080,14.98322918,.0004433,69.9996,174.3493,259.6880,100.3780,0,U,56496,999,17346,-.53153E-4,-.727E-5,0
STARLINK-5527,2023-064BB,2026-07-02T16:53:34.691136,14.98330712,.0003995,69.9994,174.3358,265.4202,94.6501,0,U,56497,999,17346,.23355E-4,.186E-5,0
STARLINK-5522,2023-064BC,2026-07-02T17:11:22.405920,14.98331183,.0003341,69.9995,174.3784,269.4153,90.6623,0,U,56498,999,17346,.38954E-4,.372E-5,0
STARLINK-5775,2023-065A,2026-07-02T17:08:50.868096,15.27577429,.0001498,43.0033,282.6912,268.5396,91.5284,0,U,56503,999,17419,-.18463E-4,-.77E-5,0
STARLINK-5716,2023-065B,2026-07-02T14:20:53.489184,15.27573575,.0001717,43.0056,283.5321,283.1382,76.9278,0,U,56504,999,17417,-.61786E-5,-.432E-5,0
STARLINK-5763,2023-065C,2026-07-02T16:32:03.029280,15.27579477,.0001428,43.0021,283.3523,270.9643,89.1045,0,U,56505,999,17418,.22323E-4,.352E-5,0
STARLINK-5340,2023-065D,2026-07-02T14:32:00.465216,15.27581301,.0001421,43.0017,272.2766,265.8089,94.2601,0,U,56506,999,17430,-.27977E-4,-.1032E-4,0
STARLINK-5333,2023-065E,2026-07-02T14:58:08.755680,15.27574256,.0001257,43.0014,250.6422,270.8258,89.2450,0,U,56507,999,17455,-.88471E-5,-.505E-5,0
STARLINK-5335,2023-065F,2026-07-02T16:48:31.580064,15.27553139,.0002202,43.0062,282.5773,269.7138,90.3461,0,U,56508,999,17419,-.81612E-4,-.2506E-4,0
STARLINK-5334,2023-065G,2026-07-02T15:30:59.817024,15.27578626,.0001121,43.0020,283.0338,264.5897,95.4827,0,U,56509,999,17418,-.55739E-4,-.1795E-4,0
STARLINK-5339,2023-065H,2026-07-02T15:19:53.963328,15.27584031,.0001253,43.0015,282.9822,270.4564,89.6144,0,U,56510,999,17418,.18266E-4,.241E-5,0
STARLINK-5351,2023-065J,2026-07-02T15:40:14.369376,15.27573604,.000138,43.0032,283.0769,275.8224,84.2470,0,U,56511,999,17418,-.90398E-5,-.511E-5,0
STARLINK-5349,2023-065K,2026-07-02T13:51:16.706880,15.27555113,.0001716,42.9996,283.3691,249.6140,110.4528,0,U,56512,999,17417,.56587E-4,.1294E-4,0
STARLINK-5329,2023-065L,2026-07-02T15:45:47.566656,15.27573566,.0001181,43.0038,283.1099,279.0970,80.9748,0,U,56513,999,17418,-.64942E-5,-.441E-5,0
STARLINK-5348,2023-065N,2026-07-02T17:25:30.099648,15.27573272,.000135,43.0028,282.7678,295.4647,64.6065,0,U,56515,999,17419,-.28549E-5,-.341E-5,0
STARLINK-5342,2023-065P,2026-07-02T17:10:41.962080,15.27575558,.0001438,43.0032,282.6945,272.0723,87.9964,0,U,56516,999,17419,-.15519E-4,-.689E-5,0
STARLINK-5345,2023-065Q,2026-07-02T14:33:50.594112,15.27577214,.0001378,43.0044,283.5846,284.1222,75.9476,0,U,56517,999,17417,-.16157E-4,-.707E-5,0
STARLINK-5346,2023-065R,2026-07-02T14:22:44.430240,15.27572674,.0001501,43.0047,283.5352,290.6239,69.4451,0,U,56518,999,17417,-.63305E-5,-.436E-5,0
STARLINK-6313,2023-065S,2026-07-02T16:17:14.617824,15.27580603,.0002195,43.0040,283.2591,274.4314,85.6287,0,U,56519,999,17418,.21226E-4,.322E-5,0
STARLINK-6344,2023-065T,2026-07-02T16:02:26.925216,15.27571895,.0001446,43.0051,283.1899,270.4549,89.6137,0,U,56520,999,17418,.22366E-4,.353E-5,0
STARLINK-6333,2023-065U,2026-07-02T16:20:14.142336,15.27576527,.0001777,43.0040,286.6824,302.7238,57.3442,0,U,56521,999,17414,.2357E-4,.386E-5,0
STARLINK-6327,2023-065V,2026-07-02T14:37:32.030400,15.27575384,.0001562,43.0019,283.5996,270.9994,89.0679,0,U,56522,999,17417,.51784E-4,.1163E-4,0
STARLINK-6328,2023-065W,2026-07-02T18:17:18.744000,15.27574330,.0001364,43.0002,283.0282,267.9377,92.1318,0,U,56523,999,17419,-.94981E-5,-.523E-5,0
STARLINK-6323,2023-065X,2026-07-02T16:33:54.067104,15.27577624,.0001439,43.0023,283.3509,267.2129,92.8558,0,U,56524,999,17418,.16063E-4,.18E-5,0
STARLINK-6329,2023-065Y,2026-07-02T17:18:23.104800,15.26743063,.0001398,42.9997,293.7910,274.6287,85.4405,0,U,56525,999,17406,.53044E-4,.1163E-4,0
STARLINK-6317,2023-065Z,2026-07-02T15:05:18.127392,15.27573797,.000095,43.0003,283.7481,276.5603,83.5140,0,U,56526,999,17417,-.18425E-4,-.769E-5,0
STARLINK-6335,2023-065AA,2026-07-02T16:22:05.155104,15.27576728,.0001488,43.0043,286.6857,279.9242,80.1442,0,U,56527,999,17414,-.64116E-5,-.439E-5,0
STARLINK-6337,2023-065AB,2026-07-02T14:36:49.785120,15.27574253,.0001273,43.0038,287.0024,299.1016,60.9708,0,U,56528,999,17413,.35394E-4,.712E-5,0
STARLINK-6307,2023-065AC,2026-07-02T16:26:31.047648,15.27575482,.0000688,42.9977,272.0149,298.8925,61.1858,0,U,56529,999,17431,-.16772E-5,-.308E-5,0
STARLINK-6318,2023-065AD,2026-07-02T16:56:50.210880,15.27576610,.0001235,43.0019,257.4381,274.4811,85.5900,0,U,56530,999,17448,.67125E-5,-.77E-6,0
STARLINK-6280,2023-065AE,2026-07-02T17:00:32.002272,15.27575378,.0001979,43.0021,268.7771,279.7950,80.2679,0,U,56531,999,17435,-.99443E-5,-.536E-5,0
STARLINK-6319,2023-065AF,2026-07-02T15:15:16.274592,15.27590797,.0001659,43.0037,269.0820,274.0824,85.9838,0,U,56532,999,17434,-.18539E-5,-.313E-5,0
STARLINK-6310,2023-065AG,2026-07-02T16:29:06.152928,15.27556612,.0002538,43.0065,268.6121,280.5514,79.5052,0,U,56533,999,17435,-.71677E-4,-.2233E-4,0
STARLINK-6308,2023-065AH,2026-07-02T15:20:49.191072,15.27576892,.0001625,43.0006,269.1182,276.2546,83.8120,0,U,56534,999,17434,.13681E-4,.114E-5,0
STARLINK-6309,2023-065AJ,2026-07-02T16:29:13.742304,15.27600502,.0000809,43.0032,297.2002,312.0436,48.0346,0,U,56535,999,17402,.10138E-3,.253E-4,0
STARLINK-6312,2023-065AK,2026-07-02T16:49:37.268256,15.27572987,.0001659,43.0048,297.3086,272.9973,87.0689,0,U,56536,999,17402,-.23471E-5,-.327E-5,0
STARLINK-6311,2023-065AL,2026-07-02T16:34:49.146240,15.27574667,.0001259,43.0040,297.2297,283.4470,76.6241,0,U,56537,999,17402,-.61264E-5,-.431E-5,0
STARLINK-6314,2023-065AM,2026-07-02T16:34:38.214048,15.27577370,.0001652,42.9953,268.6455,32.0441,328.0511,0,U,56538,999,17435,-.12484E-4,-.606E-5,0
STARLINK-6135,2023-065AN,2026-07-02T17:00:43.458048,15.27576233,.0001658,43.0039,297.3648,280.1292,79.9372,0,U,56539,999,17402,-.72711E-5,-.462E-5,0
STARLINK-6136,2023-065AP,2026-07-02T17:06:16.848864,15.27569796,.0001853,43.0045,297.3906,268.8815,91.1824,0,U,56540,999,17402,.29042E-5,-.182E-5,0
STARLINK-6249,2023-065AQ,2026-07-02T16:02:27.537792,15.27568114,.0001361,43.0034,294.5053,268.4873,91.5822,0,U,56541,999,17405,-.44021E-4,-.1473E-4,0
STARLINK-6266,2023-065AR,2026-07-02T18:29:18.957120,15.27578920,.0002432,43.0067,296.9584,269.7384,90.3189,0,U,56542,999,17403,.20199E-4,.293E-5,0
STARLINK-6226,2023-065AT,2026-07-02T16:28:08.554368,15.27578473,.0000742,42.9989,293.7936,48.2840,311.8075,0,U,56544,999,17406,-.69488E-4,-.2173E-4,0
STARLINK-6086,2023-065AU,2026-07-02T18:54:05.933088,15.27572290,.0001463,43.0019,293.6841,272.0733,87.9951,0,U,56545,999,17407,-.90034E-5,-.51E-5,0
STARLINK-6187,2023-065AV,2026-07-02T17:31:02.311104,15.27586465,.0001535,43.0019,294.1112,278.1357,81.9321,0,U,56546,999,17406,.10018E-2,.27414E-3,0
STARLINK-6291,2023-065AW,2026-07-02T18:33:44.163648,15.27576108,.0001652,43.0036,293.5717,273.2738,86.7925,0,U,56547,999,17407,.61693E-5,-.93E-6,0
STARLINK-6244,2023-065AX,2026-07-02T17:38:27.233088,15.27577740,.0001372,43.0011,294.1433,266.1978,93.8717,0,U,56548,999,17406,.11955E-3,.3029E-4,0
STARLINK-6263,2023-065AY,2026-07-02T18:39:17.685792,15.27579832,.0001592,42.9983,293.6036,288.4108,71.6571,0,U,56549,999,17407,-.27733E-4,-.1025E-4,0
STARLINK-6255,2023-065AZ,2026-07-02T16:06:08.213760,15.27581007,.0001264,43.0023,294.5237,271.5892,88.4815,0,U,56550,999,17405,.63326E-4,.1481E-4,0
STARLINK-6199,2023-065BA,2026-07-02T17:16:14.270304,15.27574750,.0001348,43.0038,294.0266,273.5577,86.5121,0,U,56551,999,17406,.25051E-4,.427E-5,0
STARLINK-5802,2023-065BB,2026-07-02T17:27:20.297664,15.27571996,.0001366,43.0029,294.0794,272.9992,87.0703,0,U,56552,999,17406,-.50345E-4,-.1647E-4,0
STARLINK-6074,2023-065BC,2026-07-02T16:48:29.263680,15.27576495,.0002086,43.0056,293.8781,274.7720,85.2893,0,U,56553,999,17406,.55245E-4,.1258E-4,0
STARLINK-6295,2023-065BD,2026-07-02T17:32:53.856096,15.27570697,.0000642,42.9983,294.1149,274.2818,85.7961,0,U,56554,999,17406,-.19432E-4,-.796E-5,0
STARLINK-6252,2023-065BE,2026-07-02T16:33:40.814208,15.27572768,.0001436,43.0063,293.8087,276.0860,83.9828,0,U,56555,999,17406,-.14434E-4,-.659E-5,0
STARLINK-5302,2023-065BF,2026-07-02T16:54:02.511072,15.27587665,.0001494,43.0015,293.9138,277.5562,82.5119,0,U,56556,999,17406,.75812E-4,.1825E-4,0
STARLINK-6265,2023-065BG,2026-07-02T15:36:32.870016,15.27567346,.000136,43.0030,294.3646,272.9015,87.1681,0,U,56557,999,17405,-.81749E-5,-.487E-5,0
STARLINK-6286,2023-065BH,2026-07-02T18:45:58.782240,15.27575698,.0001687,43.0023,297.0337,260.8959,99.1702,0,U,56558,999,17403,.60868E-5,-.95E-6,0
BEIDOU-3 G4,2023-066A,2026-07-02T21:29:27.610944,1.00268687,.0005032,0.4708,335.4139,176.7323,231.1635,0,U,56564,999,1155,0,-.271E-5,0
STARLINK-30122,2023-067A,2026-07-02T19:26:44.581344,15.27562864,.0001168,43.0009,347.9209,279.9037,80.1682,0,U,56688,999,17329,-.67395E-4,-.2115E-4,0
STARLINK-30129,2023-067B,2026-07-02T12:43:30.272736,15.27559088,.0001762,43.0084,352.6813,285.2809,74.7848,0,U,56689,999,17314,-.84545E-4,-.2587E-4,0
STARLINK-30124,2023-067C,2026-07-02T17:35:12.954048,15.27570680,.0001713,43.0070,351.6312,277.0742,82.9914,0,U,56690,999,17317,.80367E-6,-.24E-5,0
STARLINK-30036,2023-067E,2026-07-02T12:39:49.637376,15.27552776,.0000808,43.0060,352.6877,214.3368,145.7431,0,U,56692,999,17201,-.91087E-4,-.2765E-4,0
